RESURS-DK 1             
1 29228U 06021A   26157.85531292  .00002607  00000+0  15267-3 0  9996
2 29228  69.9339   6.2973 0006334 300.4331  59.6209 15.13170757101012
CZ-4B R/B               
1 29507U 06046C   26157.83608856  .00004412  00000+0  21954-3 0  9998
2 29507  97.5454 202.4753 0031500 320.4605  39.4331 15.17707544 73566
CZ-2C R/B               
1 31114U 07010B   26158.05623776  .00000104  00000+0  66549-4 0  9994
2 31114  98.4090 266.9033 0059606  35.4269 325.0845 14.20273865992405
COSMO-SKYMED 1          
1 31598U 07023A   26158.24295703  .00002130  00000+0  19003-3 0  9993
2 31598  97.8860 350.0162 0001260  80.4578 279.6786 14.97056031 28308
COSMOS 2428             
1 31792U 07029A   26157.66589103 -.00000182  00000+0 -71710-4 0  9991
2 31792  70.9377  16.5693 0007283 155.2577 204.8895 14.12930557976666
SL-16 R/B               
1 31793U 07029B   26158.30418979  .00000297  00000+0  17858-3 0  9993
2 31793  70.9759 344.0049 0002242 258.5019 274.6445 14.14849443978048
KORONAS-FOTON           
1 33504U 09003A   26157.91412113  .00011636  00000+0  24131-3 0  9990
2 33504  82.4292 182.9743 0010541 182.0296 178.0911 15.45507879959514
CZ-2C R/B               
1 37731U 11030B   26157.44658524  .00001481  00000+0  19130-3 0  9995
2 37731  97.8651 113.0273 0053725  62.2187  50.9381 14.81445560803234
H-2A R/B                
1 38341U 12025E   26158.18896241  .00003308  00000+0  29791-3 0  9994
2 38341  98.4815 132.5108 0044383  21.3921 338.9139 14.95660435761593
SHIJIAN-16 (SJ-16)      
1 39358U 13057A   26158.18525286  .00001562  00000+0  15430-3 0  9992
2 39358  74.9733  15.6271 0016975 253.9118 106.0202 14.92591960684850
SL-4 R/B                
1 39679U 14021B   26158.01759441  .00014688  00000+0  30255-3 0  9999
2 39679  51.6056 260.5859 0091590  68.9631 292.1120 15.41737087670048
ALOS-2                  
1 39766U 14029A   26158.26476847  .00001207  00000+0  16849-3 0  9993
2 39766  97.9211 255.5706 0001679  91.1698 268.9706 14.79467932650112
YAOGAN-29               
1 41038U 15069A   26158.32744574  .00000503  00000+0  68482-4 0  9994
2 41038  98.0030 186.9448 0002982  69.4361 290.7172 14.83078237569166
ASTRO-H (HITOMI)        
1 41337U 16012A   26158.25424231  .00002746  00000+0  15700-3 0  9997
2 41337  30.9975 138.3356 0009581 154.3484 205.7631 15.10468600565780
HXMT (HUIYAN)           
1 42758U 17034A   26158.26734233  .00005057  00000+0  25011-3 0  9991
2 42758  43.0130 238.2760 0030175  81.6094 278.8173 15.18405128496157
SAOCOM 1A               
1 43641U 18076A   26158.27949307  .00000719  00000+0  96887-4 0  9991
2 43641  97.8885 345.1719 0001520  81.1496 278.9889 14.82167889414635
H-2A R/B                
1 43682U 18084L   26157.83025537  .00022032  00000+0  46776-3 0  9999
2 43682  98.8587  34.4596 0024357  75.2215 285.1725 15.44753789419528
SAOCOM 1B               
1 46265U 20059A   26158.24325264  .00000053  00000+0  13230-4 0  9999
2 46265  97.8888 344.2307 0001495  76.9251 283.2129 14.82162082312013
CSS (TIANHE)            
1 48274U 21035A   26157.67381585  .00028669  00000+0  34211-3 0  9994
2 48274  41.4692  25.9625 0009150 355.7318   4.3441 15.60361832291529
COSMOS 2550             
1 48865U 21056A   26158.30808087  .00006075  00000+0  19088-3 0  9997
2 48865  67.1421 129.7893 0008697 266.4714  93.5446 15.33737146277202
CZ-2C R/B               
1 52794U 22058K   26156.46722230  .00039184  00000+0  44813-3 0  9997
2 52794  50.1841 224.4658 0033215 218.6451 141.2145 15.61032214223819
CZ-2C R/B               
1 54039U 22132E   26158.27916593  .00056870  00000+0  46193-3 0  9996
2 54039  97.2911 164.8696 0017024 114.4959 245.8081 15.70355633204393
GSLV R/B                
1 54149U 22138AN  26158.22617008  .00003172  00000+0  27063-3 0  9990
2 54149  87.3804 136.3299 0021214 178.5904 181.5391 14.97214236197321
XRISM                   
1 57800U 23137A   26158.02716289  .00005326  00000+0  29379-3 0  9991
2 57800  31.0024  65.4097 0007868 223.3211 136.6810 15.12376728151325
ACS3                    
1 59588U 24077B   26158.01224491  .00046051  00000+0  34445-1 0  9996
2 59588  97.1697  79.0726 0047985  67.6807 292.9436 13.93792585106626
CZ-8A R/B               
1 66004U 25231K   26158.06008308 -.00000047  00000+0  41797-4 0  9999
2 66004  50.0040  82.4009 0116482 188.3488 171.5491 14.30152094 33498
SZ-21 MODULE            
1 66515U 25246C   26157.31606433  .00056445  00000+0  36002-3 0  9996
2 66515  41.4728  14.9847 0007184 283.9983  76.0062 15.75457395 32025
